NORAD_CAT_ID,OBJECT_NAME,OBJECT_TYPE,EPOCH,MEAN_MOTION,ECCENTRICITY,INCLINATION,RA_OF_ASC_NODE,ARG_OF_PERICENTER,MEAN_ANOMALY,BSTAR,MEAN_MOTION_DOT,MEAN_MOTION_DDOT,TLE_LINE0,TLE_LINE1,TLE_LINE2,SEMIMAJOR_AXIS,PERIOD,APOGEE,PERIGEE,DECAYED
49137.0,STARLINK-3055,PAYLOAD,2021-12-28 22:00:00,15.69774654,0.0003334,69.999,189.5125,272.5049,139.446,-0.00025426,-0.00030486,0.0,0 STARLINK-3055,1 49137U 21082H   21362.91667824 -.00030486  00000-0 -25426-3 0  9999,2 49137  69.9990 189.5125 0003334 272.5049 139.4460 15.69774654  3689,6737.679,91.733,361.79,357.297,0.0
49137.0,STARLINK-3055,PAYLOAD,2021-12-29 06:00:02,15.69759516,0.0003217,69.9988,188.5756,268.967,226.1951,-0.00020529,-0.00024657,0.0,0 STARLINK-3055,1 49137U 21082H   21363.25002315 -.00024657  00000-0 -20529-3 0  9997,2 49137  69.9988 188.5756 0003217 268.9670 226.1951 15.69759516 16755,6737.722,91.734,361.755,357.42,0.0
49137.0,STARLINK-3055,PAYLOAD,2021-12-29 14:00:01,15.69745829,0.0003387,69.9989,187.6389,266.5474,311.7357,-0.00023839,-0.0002856999999999,0.0,0 STARLINK-3055,1 49137U 21082H   21363.58335648 -.00028570  00000-0 -23839-3 0  9996,2 49137  69.9989 187.6389 0003387 266.5474 311.7357 15.69745829  3706,6737.761,91.735,361.908,357.344,0.0
49137.0,STARLINK-3055,PAYLOAD,2021-12-29 22:14:59,15.6974351,0.0003208999999999,69.9988,186.6725,267.439,92.6438,9.0521e-05,0.00010605,0.0,0 STARLINK-3055,1 49137U 21082H   21363.92707997  .00010605  00000-0  90521-4 0  9995,2 49137  69.9988 186.6725 0003209 267.4390  92.6438 15.69743510 16870,6737.768,91.735,361.795,357.471,0.0
49137.0,STARLINK-3055,PAYLOAD,2021-12-30 04:00:00,15.69758552,0.0003413,69.998,185.9992,271.236,2.4136,-0.00023088,-0.00027694,0.0,0 STARLINK-3055,1 49137U 21082H   21364.16667824 -.00027694  00000-0 -23088-3 0  9997,2 49137  69.9980 185.9992 0003413 271.2360   2.4136 15.69758552 16907,6737.725,91.734,361.889,357.29,0.0
49137.0,STARLINK-3055,PAYLOAD,2021-12-30 13:32:37,15.69760392,0.0003473,69.9983,184.8812,269.2354,90.8443,0.0002373,0.00028224,0.0,0 STARLINK-3055,1 49137U 21082H   21364.56431894  .00028224  00000-0  23730-3 0  9999,2 49137  69.9983 184.8812 0003473 269.2354  90.8443 15.69760392 16979,6737.72,91.734,361.925,357.245,0.0
49137.0,STARLINK-3055,PAYLOAD,2021-12-30 21:11:25,15.69755887,0.0003879,69.9981,183.9849,273.4484,86.6268,0.00013193,0.00015572,0.0,0 STARLINK-3055,1 49137U 21082H   21364.88293789  .00015572  00000-0  13193-3 0  9997,2 49137  69.9981 183.9849 0003879 273.4484  86.6268 15.69755887 17026,6737.732,91.734,362.211,356.9840000000001,0.0
49137.0,STARLINK-3055,PAYLOAD,2021-12-30 22:00:01,15.69697741,0.0003194,69.9982,183.8907,274.7993,275.9598,0.00063276,0.00075846,0.0,0 STARLINK-3055,1 49137U 21082H   21364.91668981  .00075846  00000-0  63276-3 0  9998,2 49137  69.9982 183.8907 0003194 274.7993 275.9598 15.69697741 17012,6737.899,91.737,361.916,357.612,0.0
49137.0,STARLINK-3055,PAYLOAD,2021-12-31 06:00:00,15.69726338,0.0003096,69.9979,182.954,270.5993,3.1926,0.00023337,0.00027711,0.0,0 STARLINK-3055,1 49137U 21082H   21365.25001157  .00027711  00000-0  23337-3 0  9994,2 49137  69.9979 182.9540 0003096 270.5993   3.1926 15.69726338 17073,6737.816999999999,91.736,361.768,357.596,0.0
49137.0,STARLINK-3055,PAYLOAD,2021-12-31 14:00:49,15.69742515,0.0002883,69.9983,182.016,272.5375,87.5491,4.6949e-05,5.394e-05,0.0,0 STARLINK-3055,1 49137U 21082H   21365.58390760  .00005394  00000-0  46949-4 0  9999,2 49137  69.9983 182.0160 0002883 272.5375  87.5491 15.69742515 17131,6737.771,91.735,361.578,357.6930000000001,0.0
49137.0,STARLINK-3055,PAYLOAD,2021-12-31 21:39:38,15.69760914,0.0003148,69.998,181.1198,269.2188,90.8647,9.715e-05,0.00011406,0.0,0 STARLINK-3055,1 49137U 21082H   21365.90252316  .00011406  00000-0  97150-4 0  9990,2 49137  69.9980 181.1198 0003148 269.2188  90.8647 15.69760914 17187,6737.718000000003,91.734,361.704,357.462,0.0
49137.0,STARLINK-3055,PAYLOAD,2022-01-01 14:29:01,15.69743099,0.0002542,70.0012,179.155,257.0887,103.0025,-3.9831e-06,-6.87e-06,0.0,0 STARLINK-3055,1 49137U 21082H   22001.60349396 -.00000687  00000-0 -39831-5 0  9994,2 49137  70.0012 179.1550 0002542 257.0887 103.0025 15.69743099 17297,6737.769,91.735,361.347,357.921,0.0
49137.0,STARLINK-3055,PAYLOAD,2022-01-01 22:00:00,15.69740017,0.0003458,69.9977,178.2691,276.4672,52.9077,0.00057788,0.0006932,0.0,0 STARLINK-3055,1 49137U 21082H   22001.91667824  .00069320  00000-0  57788-3 0  9993,2 49137  69.9977 178.2691 0003458 276.4672  52.9077 15.69740017  3688,6737.778,91.735,361.973,357.31300000000016,0.0
49137.0,STARLINK-3055,PAYLOAD,2022-01-02 14:00:01,15.69825104,0.0003309,69.9983,176.3955,271.2051,224.4709,-0.0009373,-0.00110983,0.0,0 STARLINK-3055,1 49137U 21082H   22002.58334491 -.00110983  00000-0 -93730-3 0  9999,2 49137  69.9983 176.3955 0003309 271.2051 224.4709 15.69825104  3685,6737.534000000002,91.73,361.629,357.17,0.0
49137.0,STARLINK-3055,PAYLOAD,2022-01-02 22:00:00,15.69739376,0.0003352,69.9981,175.4582,277.0724,301.7785,0.00033408,0.00039842,0.0,0 STARLINK-3055,1 49137U 21082H   22002.91667824  .00039842  00000-0  33408-3 0  9993,2 49137  69.9981 175.4582 0003352 277.0724 301.7785 15.69739376  3686,6737.78,91.735,361.903,357.386,0.0
49137.0,STARLINK-3055,PAYLOAD,2022-01-03 14:00:01,15.69751959,0.0003572,69.9983,173.5843,271.5397,113.5377,-0.00025756,-0.00030851,0.0,0 STARLINK-3055,1 49137U 21082H   22003.58334491 -.00030851  00000-0 -25756-3 0  9998,2 49137  69.9983 173.5843 0003572 271.5397 113.5377 15.69751959  3683,6737.744000000002,91.734,362.015,357.202,0.0
49137.0,STARLINK-3055,PAYLOAD,2022-01-03 22:00:00,15.69718877,0.0003513,69.9983,172.6473,277.8353,190.3593,0.00052798,0.00063214,0.0,0 STARLINK-3055,1 49137U 21082H   22003.91667824  .00063214  00000-0  52798-3 0  9997,2 49137  69.9983 172.6473 0003513 277.8353 190.3593 15.69718877  3683,6737.8380000000025,91.736,362.07,357.336,0.0
49137.0,STARLINK-3055,PAYLOAD,2022-01-04 14:00:01,15.69765461,0.000334,69.9992,170.7735,272.9857,1.456,-0.00058298,-0.00069281,0.0,0 STARLINK-3055,1 49137U 21082H   22004.58334491 -.00069281  00000-0 -58298-3 0  9995,2 49137  69.9992 170.7735 0003340 272.9857   1.4560 15.69765461  3683,6737.705,91.733,361.82,357.32,0.0
49137.0,STARLINK-3055,PAYLOAD,2022-01-04 20:28:54,15.69733517,0.000283,70.0001,170.0122,291.7761,68.3133,-8.4582e-06,-1.221e-05,0.0,0 STARLINK-3055,1 49137U 21082H   22004.85340425 -.00001221  00000-0 -84582-5 0  9996,2 49137  70.0001 170.0122 0002830 291.7761  68.3133 15.69733517 17800,6737.795999999999,91.735,361.568,357.755,0.0
49137.0,STARLINK-3055,PAYLOAD,2022-01-05 06:00:00,15.69700897,0.0003358,69.9989,168.8997,272.2376,168.4365,0.00061958,0.00074259,0.0,0 STARLINK-3055,1 49137U 21082H   22005.25001157  .00074259  00000-0  61958-3 0  9996,2 49137  69.9989 168.8997 0003358 272.2376 168.4365 15.69700897 17858,6737.89,91.737,362.017,357.492,0.0
49137.0,STARLINK-3055,PAYLOAD,2022-01-05 14:00:01,15.69773401,0.0003379,69.9992,167.9628,273.789,249.9816,-0.00025924,-0.00031076,0.0,0 STARLINK-3055,1 49137U 21082H   22005.58334491 -.00031076  00000-0 -25924-3 0  9997,2 49137  69.9992 167.9628 0003379 273.7890 249.9816 15.69773401  3686,6737.682,91.733,361.824,357.271,0.0
49137.0,STARLINK-3055,PAYLOAD,2022-01-05 22:00:00,15.69748419,0.000341,69.999,167.0257,279.7185,327.1982,0.00038693,0.00046232,0.0,0 STARLINK-3055,1 49137U 21082H   22005.91667824  .00046232  00000-0  38693-3 0  9998,2 49137  69.9990 167.0257 0003410 279.7185 327.1982 15.69748419 17962,6737.754,91.734,361.916,357.321,0.0
49137.0,STARLINK-3055,PAYLOAD,2022-01-06 06:00:00,15.69758585,0.0003442,69.9993,166.0888,273.5828,56.4881,-0.00021599,-0.00025927,0.0,0 STARLINK-3055,1 49137U 21082H   22006.25001157 -.00025927  00000-0 -21599-3 0  9994,2 49137  69.9993 166.0888 0003442 273.5828  56.4881 15.69758585 18017,6737.725,91.734,361.909,357.271,0.0
49137.0,STARLINK-3055,PAYLOAD,2022-01-06 14:00:01,15.69755783,0.0003645,69.9998,165.1519,274.5633,138.6306,-0.00027878,-0.00033371,0.0,0 STARLINK-3055,1 49137U 21082H   22006.58334491 -.00033371  00000-0 -27878-3 0  9998,2 49137  69.9998 165.1519 0003645 274.5633 138.6306 15.69755783  3682,6737.733,91.734,362.054,357.142,0.0
49137.0,STARLINK-3055,PAYLOAD,2022-01-06 22:00:00,15.69731449,0.000369,69.9995,164.2149,279.1637,217.148,0.00027534,0.00032763,0.0,0 STARLINK-3055,1 49137U 21082H   22006.91667824  .00032763  00000-0  27534-3 0  9995,2 49137  69.9995 164.2149 0003690 279.1637 217.1480 15.69731449  3693,6737.802,91.735,362.154,357.181,0.0
49137.0,STARLINK-3055,PAYLOAD,2022-01-07 06:00:00,15.69713111,0.0003664,69.9994,163.278,273.5742,305.8662,0.00065015,0.00078012,0.0,0 STARLINK-3055,1 49137U 21082H   22007.25001157  .00078012  00000-0  65015-3 0  9997,2 49137  69.9994 163.2780 0003664 273.5742 305.8662 15.69713111 18170,6737.855,91.737,362.189,357.251,0.0
49137.0,STARLINK-3055,PAYLOAD,2022-01-07 14:00:01,15.69785459,0.0003692,69.9994,162.3412,274.947,27.6046,-0.00029803,-0.00035695,0.0,0 STARLINK-3055,1 49137U 21082H   22007.58334491 -.00035695  00000-0 -29803-3 0  9990,2 49137  69.9994 162.3412 0003692 274.9470  27.6046 15.69785459  3696,6737.648,91.732,362.0,357.025,0.0
49137.0,STARLINK-3055,PAYLOAD,2022-01-07 22:00:00,15.697734099999998,0.0003654,69.9989,161.4041,280.8725,104.8292,6.3303e-05,7.359e-05,0.0,0 STARLINK-3055,1 49137U 21082H   22007.91667824  .00007359  00000-0  63303-4 0  9994,2 49137  69.9989 161.4041 0003654 280.8725 104.8292 15.69773410  3689,6737.682,91.733,362.009,357.085,0.0
49137.0,STARLINK-3055,PAYLOAD,2022-01-08 02:00:01,15.69737599,0.0003377,69.999,160.9356,278.5958,328.6882,-0.00033434,-0.00039916,0.0,0 STARLINK-3055,1 49137U 21082H   22008.08335648 -.00039916  00000-0 -33434-3 0  9996,2 49137  69.9990 160.9356 0003377 278.5958 328.6882 15.69737599 18302,6737.785,91.735,361.925,357.374,0.0
